{
  "norad_id": 68756,
  "name": "2026-083D",
  "history": [
    {
      "epoch": "2026-04-17T02:16:33.803616Z",
      "apogee_km": 553.9346455648365,
      "perigee_km": 539.271923496759,
      "latitude_deg": -6.274571004921742e-05,
      "longitude_deg": 12.96754180724412,
      "height_km": 550.2717081061636,
      "semi_major_axis_km": 6924.740284530797,
      "eccentricity": 0.00105872,
      "inclination_deg": 96.9492,
      "raan_deg": 252.3415,
      "arg_perigee_deg": 265.4967,
      "mean_anomaly_deg": 94.5052,
      "mean_motion_rev_day": 15.06598489
    }
  ]
}